{"type": "FeatureCollection", "features": [ {"type": "Feature", "properties": {"norad_id": 34014, "name": "COSMOS 2251 DEB", "group": "cosmos-2251-debris", "lat": 3.545929789055778, "lon": -77.12654839874418, "alt_km": 639.3995620302003, "timestamp": "2025-12-12T03:50:52.811794+00:00", "meta": {"OBJECT_NAME": "COSMOS 2251 DEB", "OBJECT_ID": "1993-036GZ", "EPOCH": "2025-12-11T13:57:27.171936", "MEAN_MOTION": 14.73115245, "ECCENTRICITY": 0.00369197, "INCLINATION": 74.0172, "RA_OF_ASC_NODE": 282.9843, "ARG_OF_PERICENTER": 62.9237, "MEAN_ANOMALY": 113.1654, "EPHEMERIS_TYPE": 0, "CLASSIFICATION_TYPE": "U", "NORAD_CAT_ID": 34014, "ELEMENT_SET_NO": 999, "REV_AT_EPOCH": 89286, "BSTAR": 0.0016341064, "MEAN_MOTION_DOT": 0.00010623, "MEAN_MOTION_DDOT": 0}, "tle": {"line1": "1 34014U 93036GZ  25345.58156449  .00010623  00000+0  16341-2 0  9992", "line2": "2 34014  74.0172 282.9843 0036919  62.9237 113.1654 14.73115245892865"}}, "geometry": {"type": "Point", "coordinates": [-77.12654839874418, 3.545929789055778]}}, {"type": "Feature", "properties": {"norad_id": 34015, "name": "COSMOS 2251 DEB", "group": "cosmos-2251-debris", "lat": 31.40748584303562, "lon": -29.543125112911056, "alt_km": 695.4278623250248, "timestamp": "2025-12-12T03:50:52.811804+00:00", "meta": {"OBJECT_NAME": "COSMOS 2251 DEB", "OBJECT_ID": "1993-036HA", "EPOCH": "2025-12-11T12:39:28.010592", "MEAN_MOTION": 14.60225569, "ECCENTRICITY": 0.00210443, "INCLINATION": 74.0234, "RA_OF_ASC_NODE": 161.7399, "ARG_OF_PERICENTER": 258.751, "MEAN_ANOMALY": 162.733, "EPHEMERIS_TYPE": 0, "CLASSIFICATION_TYPE": "U", "NORAD_CAT_ID": 34015, "ELEMENT_SET_NO": 999, "REV_AT_EPOCH": 88513, "BSTAR": 0.0026147281, "MEAN_MOTION_DOT": 0.00012643, "MEAN_MOTION_DDOT": 0}, "tle": {"line1": "1 34015U 93036HA  25345.52740753  .00012643  00000+0  26147-2 0  9993", "line2": "2 34015  74.0234 161.7399 0021044 258.7510 162.7330 14.60225569885137"}}, "geometry": {"type": "Point", "coordinates": [-29.543125112911056, 31.40748584303562]}}, {"type": "Feature", "properties": {"norad_id": 34018, "name": "COSMOS 2251 DEB", "group": "cosmos-2251-debris", "lat": 73.6282994046181, "lon": -166.83095304603083, "alt_km": 794.7857459101597, "timestamp": "2025-12-12T03:50:52.811814+00:00", "meta": {"OBJECT_NAME": "COSMOS 2251 DEB", "OBJECT_ID": "1993-036HD", "EPOCH": "2025-12-11T13:34:45.382656", "MEAN_MOTION": 13.81069638, "ECCENTRICITY": 0.02638281, "INCLINATION": 73.8777, "RA_OF_ASC_NODE": 94.0849, "ARG_OF_PERICENTER": 130.1921, "MEAN_ANOMALY": 249.5922, "EPHEMERIS_TYPE": 0, "CLASSIFICATION_TYPE": "U", "NORAD_CAT_ID": 34018, "ELEMENT_SET_NO": 999, "REV_AT_EPOCH": 84641, "BSTAR": 0.00080340881, "MEAN_MOTION_DOT": 1.084e-05, "MEAN_MOTION_DDOT": 0}, "tle": {"line1": "1 34018U 93036HD  25345.56580304  .00001084  00000+0  80341-3 0  9998", "line2": "2 34018  73.8777  94.0849 0263828 130.1921 249.5922 13.81069638846418"}}, "geometry": {"type": "Point", "coordinates": [-166.83095304603083, 73.6282994046181]}}, {"type": "Feature", "properties": {"norad_id": 34019, "name": "COSMOS 2251 DEB", "group": "cosmos-2251-debris", "lat": 65.34509694256529, "lon": -167.0232737087408, "alt_km": 796.8782763068393, "timestamp": "2025-12-12T03:50:52.811824+00:00", "meta": {"OBJECT_NAME": "COSMOS 2251 DEB", "OBJECT_ID": "1993-036HE", "EPOCH": "2025-12-11T05:49:55.803072", "MEAN_MOTION": 14.33925838, "ECCENTRICITY": 0.00627125, "INCLINATION": 73.9545, "RA_OF_ASC_NODE": 53.4921, "ARG_OF_PERICENTER": 234.9566, "MEAN_ANOMALY": 181.0856, "EPHEMERIS_TYPE": 0, "CLASSIFICATION_TYPE": "U", "NORAD_CAT_ID": 34019, "ELEMENT_SET_NO": 999, "REV_AT_EPOCH": 87499, "BSTAR": 0.0013912453, "MEAN_MOTION_DOT": 3.94e-05, "MEAN_MOTION_DDOT": 0}, "tle": {"line1": "1 34019U 93036HE  25345.24300698  .00003940  00000+0  13912-2 0  9992", "line2": "2 34019  73.9545  53.4921 0062712 234.9566 181.0856 14.33925838874991"}}, "geometry": {"type": "Point", "coordinates": [-167.0232737087408, 65.34509694256529]}}, {"type": "Feature", "properties": {"norad_id": 34021, "name": "COSMOS 2251 DEB", "group": "cosmos-2251-debris", "lat": 4.5763657206950255, "lon": -50.396365665656255, "alt_km": 730.3281582269565, "timestamp": "2025-12-12T03:50:52.811834+00:00", "meta": {"OBJECT_NAME": "COSMOS 2251 DEB", "OBJECT_ID": "1993-036HG", "EPOCH": "2025-12-11T10:45:55.476000", "MEAN_MOTION": 14.49941416, "ECCENTRICITY": 0.00208998, "INCLINATION": 74.0357, "RA_OF_ASC_NODE": 132.2525, "ARG_OF_PERICENTER": 276.4192, "MEAN_ANOMALY": 145.135, "EPHEMERIS_TYPE": 0, "CLASSIFICATION_TYPE": "U", "NORAD_CAT_ID": 34021, "ELEMENT_SET_NO": 999, "REV_AT_EPOCH": 88611, "BSTAR": 0.00087654579, "MEAN_MOTION_DOT": 3.374e-05, "MEAN_MOTION_DDOT": 0}, "tle": {"line1": "1 34021U 93036HG  25345.44855875  .00003374  00000+0  87655-3 0  9996", "line2": "2 34021  74.0357 132.2525 0020899 276.4192 145.1350 14.49941416886113"}}, "geometry": {"type": "Point", "coordinates": [-50.396365665656255, 4.5763657206950255]}}, {"type": "Feature", "properties": {"norad_id": 34022, "name": "COSMOS 2251 DEB", "group": "cosmos-2251-debris", "lat": 13.997095724664703, "lon": -84.05035757907315, "alt_km": 749.74458511997, "timestamp": "2025-12-12T03:50:52.811844+00:00", "meta": {"OBJECT_NAME": "COSMOS 2251 DEB", "OBJECT_ID": "1993-036HH", "EPOCH": "2025-12-11T13:37:42.869856", "MEAN_MOTION": 14.38960868, "ECCENTRICITY": 0.00226784, "INCLINATION": 74.0542, "RA_OF_ASC_NODE": 272.954, "ARG_OF_PERICENTER": 338.1205, "MEAN_ANOMALY": 208.4572, "EPHEMERIS_TYPE": 0, "CLASSIFICATION_TYPE": "U", "NORAD_CAT_ID": 34022, "ELEMENT_SET_NO": 999, "REV_AT_EPOCH": 88178, "BSTAR": 0.0003996084, "MEAN_MOTION_DOT": 1.21e-05, "MEAN_MOTION_DDOT": 0}, "tle": {"line1": "1 34022U 93036HH  25345.56785729  .00001210  00000+0  39961-3 0  9994", "line2": "2 34022  74.0542 272.9540 0022678 338.1205 208.4572 14.38960868881784"}}, "geometry": {"type": "Point", "coordinates": [-84.05035757907315, 13.997095724664703]}}, {"type": "Feature", "properties": {"norad_id": 34023, "name": "COSMOS 2251 DEB", "group": "cosmos-2251-debris", "lat": -64.32162976443618, "lon": -143.75274571145778, "alt_km": 756.5585641065327, "timestamp": "2025-12-12T03:50:52.811854+00:00", "meta": {"OBJECT_NAME": "COSMOS 2251 DEB", "OBJECT_ID": "1993-036HJ", "EPOCH": "2025-12-11T05:25:36.741216", "MEAN_MOTION": 14.40555601, "ECCENTRICITY": 0.00184251, "INCLINATION": 74.0252, "RA_OF_ASC_NODE": 254.5441, "ARG_OF_PERICENTER": 350.5292, "MEAN_ANOMALY": 137.1772, "EPHEMERIS_TYPE": 0, "CLASSIFICATION_TYPE": "U", "NORAD_CAT_ID": 34023, "ELEMENT_SET_NO": 999, "REV_AT_EPOCH": 88192, "BSTAR": 0.00051396727, "MEAN_MOTION_DOT": 1.614e-05, "MEAN_MOTION_DDOT": 0}, "tle": {"line1": "1 34023U 93036HJ  25345.22611969  .00001614  00000+0  51397-3 0  9997", "line2": "2 34023  74.0252 254.5441 0018425 350.5292 137.1772 14.40555601881922"}}, "geometry": {"type": "Point", "coordinates": [-143.75274571145778, -64.32162976443618]}}, {"type": "Feature", "properties": {"norad_id": 34024, "name": "COSMOS 2251 DEB", "group": "cosmos-2251-debris", "lat": -46.930611765867276, "lon": -60.76304165010184, "alt_km": 772.0589796133836, "timestamp": "2025-12-12T03:50:52.811864+00:00", "meta": {"OBJECT_NAME": "COSMOS 2251 DEB", "OBJECT_ID": "1993-036HK", "EPOCH": "2025-12-11T08:42:08.638272", "MEAN_MOTION": 14.35394321, "ECCENTRICITY": 0.00209675, "INCLINATION": 74.0464, "RA_OF_ASC_NODE": 318.5175, "ARG_OF_PERICENTER": 9.567, "MEAN_ANOMALY": 140.6988, "EPHEMERIS_TYPE": 0, "CLASSIFICATION_TYPE": "U", "NORAD_CAT_ID": 34024, "ELEMENT_SET_NO": 999, "REV_AT_EPOCH": 88004, "BSTAR": 0.00034013394, "MEAN_MOTION_DOT": 9.53e-06, "MEAN_MOTION_DDOT": 0}, "tle": {"line1": "1 34024U 93036HK  25345.36259998  .00000953  00000+0  34013-3 0  9994", "line2": "2 34024  74.0464 318.5175 0020967   9.5670 140.6988 14.35394321880042"}}, "geometry": {"type": "Point", "coordinates": [-60.76304165010184, -46.930611765867276]}}, {"type": "Feature", "properties": {"norad_id": 34026, "name": "COSMOS 2251 DEB", "group": "cosmos-2251-debris", "lat": -13.3768047113712, "lon": -25.7229248205262, "alt_km": 1208.5217878525946, "timestamp": "2025-12-12T03:50:52.811875+00:00", "meta": {"OBJECT_NAME": "COSMOS 2251 DEB", "OBJECT_ID": "1993-036HM", "EPOCH": "2025-12-11T11:07:05.699424", "MEAN_MOTION": 13.65306511, "ECCENTRICITY": 0.0350694, "INCLINATION": 73.767, "RA_OF_ASC_NODE": 339.4083, "ARG_OF_PERICENTER": 209.6128, "MEAN_ANOMALY": 308.8779, "EPHEMERIS_TYPE": 0, "CLASSIFICATION_TYPE": "U", "NORAD_CAT_ID": 34026, "ELEMENT_SET_NO": 999, "REV_AT_EPOCH": 83514, "BSTAR": 0.0011554475, "MEAN_MOTION_DOT": 1.406e-05, "MEAN_MOTION_DDOT": 0}, "tle": {"line1": "1 34026U 93036HM  25345.46326041  .00001406  00000+0  11554-2 0  9999", "line2": "2 34026  73.7670 339.4083 0350694 209.6128 308.8779 13.65306511835146"}}, "geometry": {"type": "Point", "coordinates": [-25.7229248205262, -13.3768047113712]}}, {"type": "Feature", "properties": {"norad_id": 34028, "name": "COSMOS 2251 DEB", "group": "cosmos-2251-debris", "lat": 73.84363777928421, "lon": 74.51226422684411, "alt_km": 839.17268231053, "timestamp": "2025-12-12T03:50:52.811885+00:00", "meta": {"OBJECT_NAME": "COSMOS 2251 DEB", "OBJECT_ID": "1993-036HP", "EPOCH": "2025-12-11T11:39:17.207712", "MEAN_MOTION": 13.20621491, "ECCENTRICITY": 0.05437434, "INCLINATION": 73.8832, "RA_OF_ASC_NODE": 349.1731, "ARG_OF_PERICENTER": 127.2338, "MEAN_ANOMALY": 358.7771, "EPHEMERIS_TYPE": 0, "CLASSIFICATION_TYPE": "U", "NORAD_CAT_ID": 34028, "ELEMENT_SET_NO": 999, "REV_AT_EPOCH": 80991, "BSTAR": 0.00052553712, "MEAN_MOTION_DOT": 4.47e-06, "MEAN_MOTION_DDOT": 0}, "tle": {"line1": "1 34028U 93036HP  25345.48561583  .00000447  00000+0  52554-3 0  9995", "line2": "2 34028  73.8832 349.1731 0543743 127.2338 358.7771 13.20621491809914"}}, "geometry": {"type": "Point", "coordinates": [74.51226422684411, 73.84363777928421]}}]}